IRIDIUM 155             
1 43573U 18061E   25215.66433297 -.00000020  00000+0 -14057-4 0  9997
2 43573  86.4007 189.3465 0001841  87.6989 272.4417 14.34217462367845
IRIDIUM 154             
1 43574U 18061F   25216.20345371  .00000034  00000+0  49933-5 0  9999
2 43574  86.4007 189.2387 0002292  87.2817 272.8642 14.34216977367973
IRIDIUM 163             
1 43575U 18061G   25216.46350460  .00000258  00000+0  84984-4 0  9995
2 43575  86.4005 189.0556 0002238  82.6442 277.5008 14.34220229367985
IRIDIUM 156             
1 43576U 18061H   25215.67067601  .00000036  00000+0  58521-5 0  9993
2 43576  86.4003 189.3936 0002013  92.8512 267.2914 14.34217961367869
IRIDIUM 164             
1 43577U 18061J   25215.86095493  .00000000  00000+0 -72174-5 0  9997
2 43577  86.4008 189.3495 0002270  91.6710 268.4746 14.34217110367937
IRIDIUM 159             
1 43578U 18061K   25216.17808100  .00000266  00000+0  87905-4 0  9990
2 43578  86.4001 189.1605 0002528  84.2781 275.8703 14.34216786367948
IRIDIUM 180             
1 43922U 19002A   25215.68920006  .00000205  00000+0  66045-4 0  9999
2 43922  86.3994 126.3477 0002099  84.5393 275.6042 14.34217350343481
IRIDIUM 176             
1 43923U 19002B   25215.81776940  .00000793  00000+0  12184-3 0  9997
2 43923  86.6119 126.2824 0001783  81.4699 278.6720 14.72250759352559
IRIDIUM 168             
1 43924U 19002C   25215.26424709  .00000214  00000+0  69298-4 0  9997
2 43924  86.4002 126.5923 0002264  86.1112 274.0342 14.34217631343403
IRIDIUM 173             
1 43925U 19002D   25216.29808771  .00000201  00000+0  64661-4 0  9992
2 43925  86.3997 126.0630 0002119  79.2595 280.8839 14.34216825343548
IRIDIUM 169             
1 43926U 19002E   25215.73014683  .00000316  00000+0  96813-4 0  9993
2 43926  86.4282 157.8915 0001026  66.0240 294.1065 14.38606221344583
IRIDIUM 172             
1 43927U 19002F   25216.22197554  .00000165  00000+0  51685-4 0  9998
2 43927  86.3994 126.1023 0002359  78.6979 281.4482 14.34219370343537
IRIDIUM 175             
1 43928U 19002G   25215.88077627  .00000755  00000+0  11584-3 0  9996
2 43928  86.1463  76.0451 0002069 110.4779 249.6660 14.72244557352559
IRIDIUM 171             
1 43929U 19002H   25215.85410330  .00000221  00000+0  71866-4 0  9994
2 43929  86.4004 126.5270 0002221  92.3123 267.8327 14.34220219343475
IRIDIUM 170             
1 43930U 19002J   25216.16378879  .00000846  00000+0  13031-3 0  9994
2 43930  86.6118 126.1423 0002278  86.5087 273.6391 14.72251070352610
IRIDIUM 167             
1 43931U 19002K   25215.84776515  .00000146  00000+0  45010-4 0  9994
2 43931  86.3996 126.2781 0001990  95.5771 264.5652 14.34217791343473
IRIDIUM 181             
1 56726U 23068S   25215.64716813  .00000232  00000+0  62785-4 0  9994
2 56726  86.4540 189.4219 0002741  97.1665 262.9847 14.43308226116635
IRIDIUM 177             
1 56727U 23068T   25216.20343772  .00001202  00000+0  15473-3 0  9997
2 56727  86.1982 119.3469 0002292  93.2110 266.9373 14.80232516119477
IRIDIUM 174             
1 56728U 23068U   25216.49125628  .00000954  00000+0  14734-3 0  9999
2 56728  86.6127 126.1207 0002381  72.0119 288.1357 14.72260208119426
IRIDIUM 178             
1 56729U 23068V   25215.92213107  .00001059  00000+0  13593-3 0  9996
2 56729  86.6601 157.9229 0002463  84.3106 275.8396 14.80239156119437
IRIDIUM 179             
1 56730U 23068W   25216.38996835  .00001198  00000+0  15426-3 0  9996
2 56730  86.6840 165.7416 0002404  90.2006 269.9491 14.80239253119505
